{"type": "FeatureCollection", "features": [{"type": "Feature", "properties": {"name": "Hotel Zarea", "ro": null, "cat": "asset", "height": 36, "dist": 4, "center": [28.836137, 47.031217], "osm": "way/32821343"}, "geometry": {"type": "Polygon", "coordinates": [[[28.8361267, 47.0310799], [28.8362829, 47.031193], [28.8363149, 47.0311732], [28.8363849, 47.0312221], [28.8362331, 47.0313263], [28.8362613, 47.0313451], [28.8361916, 47.0313925], [28.8360288, 47.0312785], [28.8359964, 47.0313014], [28.8359257, 47.0312511], [28.835958, 47.0312301], [28.8360841, 47.0311496], [28.8360543, 47.0311281], [28.8360851, 47.0311087], [28.8361267, 47.0310799]]]}}, {"type": "Feature", "properties": {"name": "Parliament", "ro": "Parlamentul Republicii Moldova", "cat": "state", "height": 30.6, "dist": 879, "center": [28.826295, 47.027109], "osm": "relation/17536997"}, "geometry": {"type": "MultiPolygon", "coordinates": [[[[28.826509, 47.0273036], [28.8264176, 47.0273645], [28.8263192, 47.027474], [28.8260502, 47.0277734], [28.8258646, 47.0276959], [28.8258723, 47.0276873], [28.8259637, 47.0275855], [28.8259926, 47.0275534], [28.826026, 47.0275162], [28.8260717, 47.0275353], [28.8261134, 47.0274889], [28.8262387, 47.0273493], [28.8261255, 47.0272727], [28.8261538, 47.0272546], [28.8261122, 47.0272266], [28.8260836, 47.0272464], [28.826022, 47.0272049], [28.8259891, 47.0271581], [28.8258689, 47.0270756], [28.8258889, 47.0270684], [28.8258408, 47.027024], [28.8258295, 47.0270136], [28.8258451, 47.0270045], [28.8258785, 47.026985], [28.8258965, 47.0269745], [28.8259132, 47.0269863], [28.8259388, 47.0269539], [28.8259746, 47.0269247], [28.826023, 47.0269007], [28.8260767, 47.0268821], [28.8260556, 47.0268678], [28.8260725, 47.0268562], [28.8260898, 47.0268443], [28.8261137, 47.0268279], [28.8261288, 47.0268357], [28.826188, 47.0268663], [28.8262056, 47.0268569], [28.8262742, 47.0269048], [28.8263277, 47.0269422], [28.8263389, 47.0269453], [28.8263759, 47.0269553], [28.8264002, 47.0269725], [28.8264256, 47.0269906], [28.8264454, 47.0270047], [28.8264126, 47.0270283], [28.8264596, 47.0270587], [28.8264817, 47.0270428], [28.8265832, 47.0271084], [28.8268034, 47.0270184], [28.8268616, 47.0269946], [28.8268413, 47.0269716], [28.827079, 47.0268745], [28.8271301, 47.0268536], [28.8271571, 47.0268849], [28.8271766, 47.0269071], [28.8272047, 47.0269401], [28.82724, 47.0269811], [28.826765, 47.0271702], [28.826626, 47.0272256], [28.826509, 47.0273036]]]]}}, {"type": "Feature", "properties": {"name": "Presidency", "ro": "Președinția Republicii Moldova", "cat": "state", "height": 30.0, "dist": 689, "center": [28.828071, 47.028428], "osm": "way/27616508"}, "geometry": {"type": "Polygon", "coordinates": [[[28.8279938, 47.0286011], [28.8280154, 47.0285868], [28.8279954, 47.0285728], [28.8280023, 47.0285683], [28.8279685, 47.0285446], [28.8279518, 47.0285328], [28.8279469, 47.028536], [28.8279238, 47.0285198], [28.8279022, 47.0285341], [28.8277816, 47.0284492], [28.8278764, 47.0283866], [28.8278649, 47.0283786], [28.8278982, 47.0283566], [28.827926, 47.0283761], [28.8279492, 47.0283607], [28.8279721, 47.0283596], [28.8279814, 47.0283532], [28.8280173, 47.0283283], [28.8280165, 47.0283041], [28.8279907, 47.0282859], [28.8280404, 47.028253], [28.8280687, 47.0282729], [28.8280709, 47.0282714], [28.828046, 47.028254], [28.828138, 47.0281932], [28.8282763, 47.0282904], [28.828239, 47.0283151], [28.8282752, 47.0283405], [28.8283271, 47.028377], [28.8283617, 47.0283541], [28.8284987, 47.0284503], [28.8283602, 47.0285419], [28.8283268, 47.0285184], [28.8282327, 47.0285807], [28.8282661, 47.0286041], [28.828128, 47.0286954], [28.8279938, 47.0286011]]]}}, {"type": "Feature", "properties": {"name": "Government House", "ro": "Casa Guvernului", "cat": "state", "height": 20.0, "dist": 905, "center": [28.831178, 47.023855], "osm": "way/762704772"}, "geometry": {"type": "Polygon", "coordinates": [[[28.8306016, 47.0244762], [28.8307475, 47.0245775], [28.8315826, 47.0240188], [28.8324132, 47.0234631], [28.8322588, 47.0233558], [28.831846, 47.0230691], [28.8316844, 47.0231772], [28.8317389, 47.0232151], [28.8317617, 47.0231998], [28.8320775, 47.0234189], [28.8321085, 47.0234404], [28.830723, 47.0243684], [28.8306947, 47.0243487], [28.8303813, 47.0241312], [28.8304067, 47.0241142], [28.8303428, 47.0240699], [28.8302424, 47.024137], [28.8301766, 47.024181], [28.8306016, 47.0244762]]]}}, {"type": "Feature", "properties": {"name": "National Bank of Moldova", "ro": "Banca Națională a Moldovei", "cat": "finance", "height": 34.0, "dist": 264, "center": [28.838145, 47.029286], "osm": "relation/12578660"}, "geometry": {"type": "MultiPolygon", "coordinates": [[[[28.8379421, 47.0288484], [28.8379697, 47.0288672], [28.8386697, 47.0293447], [28.8384906, 47.0294685], [28.8384832, 47.0294635], [28.8383114, 47.0295804], [28.8382012, 47.0295055], [28.8381266, 47.0295583], [28.8379711, 47.0294538], [28.8380465, 47.0294013], [28.8375904, 47.0290903], [28.8379421, 47.0288484]]]]}}, {"type": "Feature", "properties": {"name": "Ministry of Finance", "ro": "Ministerul Finanțelor", "cat": "finance", "height": 13.6, "dist": 392, "center": [28.838125, 47.02798], "osm": "relation/11764456"}, "geometry": {"type": "MultiPolygon", "coordinates": [[[[28.837638, 47.0280395], [28.8379844, 47.0282781], [28.8380281, 47.0282482], [28.8380332, 47.0282514], [28.8381621, 47.0281616], [28.8381584, 47.0281589], [28.8385903, 47.0278633], [28.8383476, 47.0276915], [28.8382778, 47.0277382], [28.8383418, 47.0277824], [28.8383374, 47.0277915], [28.8383436, 47.0277999], [28.8382267, 47.0278785], [28.8382589, 47.0279018], [28.8379836, 47.0280892], [28.8377747, 47.027949], [28.837638, 47.0280395]]]]}}, {"type": "Feature", "properties": {"name": "Ministry of Foreign Affairs", "ro": "Ministerul Afacerilor Externe și Integrării Europene", "cat": "state", "height": 12, "dist": 1031, "center": [28.824894, 47.026062], "osm": "way/39889215"}, "geometry": {"type": "Polygon", "coordinates": [[[28.8251149, 47.0257292], [28.8252618, 47.0258242], [28.8249629, 47.0260383], [28.8251304, 47.0261517], [28.824971, 47.0262611], [28.8249995, 47.0262804], [28.824833, 47.0263947], [28.8244873, 47.0261607], [28.8246315, 47.0260617], [28.8246821, 47.0260959], [28.8247403, 47.026056], [28.8246898, 47.0260218], [28.8251149, 47.0257292]]]}}, {"type": "Feature", "properties": {"name": "Constitutional Court", "ro": "Curtea Constituțională", "cat": "state", "height": 12, "dist": 1279, "center": [28.819403, 47.032506], "osm": "way/617137331"}, "geometry": {"type": "Polygon", "coordinates": [[[28.8193781, 47.0326519], [28.8196889, 47.0324376], [28.8195379, 47.0323305], [28.8193252, 47.0324767], [28.8193057, 47.0324648], [28.8192049, 47.0325306], [28.8193781, 47.0326519]]]}}, {"type": "Feature", "properties": {"name": "City Hall", "ro": "Primăria Municipiului Chișinău", "cat": "state", "height": 6.8, "dist": 965, "center": [28.834456, 47.022643], "osm": "way/25187121"}, "geometry": {"type": "Polygon", "coordinates": [[[28.8349442, 47.0226112], [28.8349511, 47.0226373], [28.8349535, 47.0226612], [28.8345184, 47.0229513], [28.8344609, 47.0229897], [28.8341652, 47.0231868], [28.8340326, 47.0230962], [28.8338608, 47.0229816], [28.8338783, 47.02297], [28.8339534, 47.0229197], [28.8340161, 47.0229619], [28.8340413, 47.0229473], [28.8341031, 47.0229898], [28.8346104, 47.0226532], [28.8346487, 47.0226519], [28.8346626, 47.0226455], [28.8346652, 47.0226252], [28.8346498, 47.0226161], [28.8346062, 47.0226186], [28.8343458, 47.0224326], [28.8342734, 47.0223808], [28.8342119, 47.022337], [28.8342063, 47.0223329], [28.8342582, 47.0222978], [28.8343706, 47.0222216], [28.8343902, 47.0222082], [28.8344715, 47.0222665], [28.8344602, 47.0222728], [28.8347986, 47.0225084], [28.8348048, 47.0225054], [28.8348937, 47.0225634], [28.8348839, 47.0225703], [28.8349442, 47.0226112]]]}}, {"type": "Feature", "properties": {"name": "World Bank office", "ro": "Banca Mondială", "cat": "finance", "height": 10.2, "dist": 1345, "center": [28.829191, 47.020125], "osm": "way/93245797"}, "geometry": {"type": "Polygon", "coordinates": [[[28.8291685, 47.0202057], [28.8293476, 47.0200927], [28.8292257, 47.0200029], [28.8290465, 47.0201159], [28.8291685, 47.0202057]]]}}, {"type": "Feature", "properties": {"name": "Metropolitan Cathedral", "ro": "Catedrala Mitropolitană „Nașterea Domnului”", "cat": "landmark", "height": 10.0, "dist": 590, "center": [28.834513, 47.026062], "osm": "way/25764333"}, "geometry": {"type": "Polygon", "coordinates": [[[28.8342678, 47.0260587], [28.8343187, 47.0260246], [28.8342722, 47.0259924], [28.8344235, 47.0258912], [28.8344666, 47.025921], [28.8345217, 47.0258842], [28.8345744, 47.0259208], [28.8346265, 47.025886], [28.8347822, 47.0259942], [28.8347337, 47.0260266], [28.8347884, 47.0260645], [28.8347356, 47.0260999], [28.834784, 47.0261335], [28.8346263, 47.0262391], [28.8345782, 47.0262057], [28.8345249, 47.0262414], [28.8344696, 47.0262031], [28.8344211, 47.0262355], [28.8342731, 47.0261328], [28.8343247, 47.0260982], [28.8342678, 47.0260587]]]}}, {"type": "Feature", "properties": {"name": "Triumphal Arch", "ro": "Arcul de Triumf", "cat": "landmark", "height": 12, "dist": 773, "center": [28.832596, 47.02473], "osm": "relation/20340431"}, "geometry": {"type": "MultiPolygon", "coordinates": [[[[28.832554, 47.0246989], [28.8325706, 47.0246877], [28.8325638, 47.0246828], [28.8325728, 47.0246768], [28.8325799, 47.0246816], [28.8325889, 47.0246756], [28.832582, 47.0246706], [28.8325911, 47.0246646], [28.8325987, 47.0246698], [28.8326069, 47.0246644], [28.8326157, 47.0246703], [28.8326077, 47.0246758], [28.8326156, 47.0246814], [28.8326235, 47.0246761], [28.8326323, 47.0246821], [28.8326242, 47.0246877], [28.8326406, 47.0246994], [28.8326598, 47.024713], [28.8326685, 47.0247075], [28.8326767, 47.0247137], [28.8326686, 47.024719], [28.8326772, 47.0247253], [28.8326857, 47.02472], [28.8326943, 47.0247264], [28.8326865, 47.0247318], [28.8326938, 47.0247373], [28.8326844, 47.0247433], [28.8326769, 47.0247378], [28.8326682, 47.0247435], [28.8326756, 47.0247488], [28.8326662, 47.024755], [28.8326587, 47.0247498], [28.8326415, 47.024761], [28.8326237, 47.0247726], [28.8326311, 47.0247781], [28.8326218, 47.0247842], [28.8326141, 47.0247789], [28.8326052, 47.0247846], [28.8326127, 47.02479], [28.8326031, 47.0247963], [28.8325954, 47.0247907], [28.8325875, 47.0247957], [28.832578, 47.0247892], [28.8325855, 47.0247842], [28.8325773, 47.0247782], [28.8325694, 47.0247836], [28.8325608, 47.0247776], [28.8325686, 47.0247725], [28.8325505, 47.02476], [28.8325335, 47.0247484], [28.8325259, 47.0247539], [28.8325167, 47.0247473], [28.8325245, 47.0247421], [28.832516, 47.0247362], [28.8325082, 47.0247416], [28.8324996, 47.0247357], [28.8325076, 47.0247302], [28.8325001, 47.024725], [28.8325092, 47.0247187], [28.8325169, 47.0247238], [28.8325256, 47.0247179], [28.8325183, 47.0247127], [28.8325277, 47.0247064], [28.832535, 47.0247115], [28.832554, 47.0246989]]]]}}]}